{
  "type": "FeatureCollection",
  "features": [
    {
      "type": "Feature",
      "properties": {
        "norad_id": 34121,
        "name": "COSMOS 2251 DEB",
        "group": "cosmos-2251-debris",
        "lat": 48.48936591131222,
        "lon": 130.37480014497967,
        "alt_km": 920.9055209795652,
        "timestamp": "2025-12-04T09:47:37.913499+00:00",
        "meta_object_name": "COSMOS 2251 DEB",
        "meta_object_id": "1993-036KS",
        "meta_epoch": "2025-12-03T16:22:38.788032",
        "meta_mean_motion": 13.91880225,
        "meta_eccentricity": 0.02397358,
        "meta_inclination": 73.9915,
        "meta_ra_of_asc_node": 112.6905,
        "meta_arg_of_pericenter": 320.0883,
        "meta_mean_anomaly": 53.566,
        "meta_ephemeris_type": 0,
        "meta_classification_type": "U",
        "meta_norad_cat_id": 34121,
        "meta_element_set_no": 999,
        "meta_rev_at_epoch": 84999,
        "meta_bstar": 0.0014175875,
        "meta_mean_motion_dot": 2.259e-05,
        "meta_mean_motion_ddot": 0,
        "tle_line1": "1 34121U 93036KS  25337.68239338  .00002259  00000+0  14176-2 0  9992",
        "tle_line2": "2 34121  73.9915 112.6905 0239735 320.0883  53.5660 13.91880225849997"
      },
      "geometry": {
        "type": "Point",
        "coordinates": [
          130.37480014497967,
          48.48936591131222
        ]
      }
    },
    {
      "type": "Feature",
      "properties": {
        "norad_id": 34122,
        "name": "COSMOS 2251 DEB",
        "group": "cosmos-2251-debris",
        "lat": -73.97113537281366,
        "lon": 39.85313879525029,
        "alt_km": 718.2799003682976,
        "timestamp": "2025-12-04T09:47:37.913509+00:00",
        "meta_object_name": "COSMOS 2251 DEB",
        "meta_object_id": "1993-036KT",
        "meta_epoch": "2025-12-04T04:27:16.004160",
        "meta_mean_motion": 14.64873166,
        "meta_eccentricity": 0.0083879,
        "meta_inclination": 74.0347,
        "meta_ra_of_asc_node": 135.0881,
        "meta_arg_of_pericenter": 34.4384,
        "meta_mean_anomaly": 142.2663,
        "meta_ephemeris_type": 0,
        "meta_classification_type": "U",
        "meta_norad_cat_id": 34122,
        "meta_element_set_no": 999,
        "meta_rev_at_epoch": 88559,
        "meta_bstar": 0.0024939,
        "meta_mean_motion_dot": 0.0001403,
        "meta_mean_motion_ddot": 0,
        "tle_line1": "1 34122U 93036KT  25338.18560190  .00014030  00000+0  24939-2 0  9990",
        "tle_line2": "2 34122  74.0347 135.0881 0083879  34.4384 142.2663 14.64873166885591"
      },
      "geometry": {
        "type": "Point",
        "coordinates": [
          39.85313879525029,
          -73.97113537281366
        ]
      }
    },
    {
      "type": "Feature",
      "properties": {
        "norad_id": 34127,
        "name": "COSMOS 2251 DEB",
        "group": "cosmos-2251-debris",
        "lat": 69.31410960346828,
        "lon": -169.7468084848377,
        "alt_km": 855.63437979831,
        "timestamp": "2025-12-04T09:47:37.913519+00:00",
        "meta_object_name": "COSMOS 2251 DEB",
        "meta_object_id": "1993-036KY",
        "meta_epoch": "2025-12-03T11:34:32.989728",
        "meta_mean_motion": 14.31380495,
        "meta_eccentricity": 0.01146152,
        "meta_inclination": 74.1802,
        "meta_ra_of_asc_node": 60.5926,
        "meta_arg_of_pericenter": 262.7201,
        "meta_mean_anomaly": 112.7932,
        "meta_ephemeris_type": 0,
        "meta_classification_type": "U",
        "meta_norad_cat_id": 34127,
        "meta_element_set_no": 999,
        "meta_rev_at_epoch": 86639,
        "meta_bstar": 0.0029195816,
        "meta_mean_motion_dot": 8.301e-05,
        "meta_mean_motion_ddot": 0,
        "tle_line1": "1 34127U 93036KY  25337.48232627  .00008301  00000+0  29196-2 0  9992",
        "tle_line2": "2 34127  74.1802  60.5926 0114615 262.7201 112.7932 14.31380495866392"
      },
      "geometry": {
        "type": "Point",
        "coordinates": [
          -169.7468084848377,
          69.31410960346828
        ]
      }
    },
    {
      "type": "Feature",
      "properties": {
        "norad_id": 34128,
        "name": "COSMOS 2251 DEB",
        "group": "cosmos-2251-debris",
        "lat": 29.483424727707984,
        "lon": -36.944908986317635,
        "alt_km": 548.7324336173097,
        "timestamp": "2025-12-04T09:47:37.913529+00:00",
        "meta_object_name": "COSMOS 2251 DEB",
        "meta_object_id": "1993-036KZ",
        "meta_epoch": "2025-12-04T00:19:24.901824",
        "meta_mean_motion": 15.00463198,
        "meta_eccentricity": 0.0026456,
        "meta_inclination": 73.9994,
        "meta_ra_of_asc_node": 314.5221,
        "meta_arg_of_pericenter": 67.9834,
        "meta_mean_anomaly": 352.497,
        "meta_ephemeris_type": 0,
        "meta_classification_type": "U",
        "meta_norad_cat_id": 34128,
        "meta_element_set_no": 999,
        "meta_rev_at_epoch": 89036,
        "meta_bstar": 0.0041524,
        "meta_mean_motion_dot": 0.00053022,
        "meta_mean_motion_ddot": 0,
        "tle_line1": "1 34128U 93036KZ  25338.01348266  .00053022  00000+0  41524-2 0  9999",
        "tle_line2": "2 34128  73.9994 314.5221 0026456  67.9834 352.4970 15.00463198890362"
      },
      "geometry": {
        "type": "Point",
        "coordinates": [
          -36.944908986317635,
          29.483424727707984
        ]
      }
    },
    {
      "type": "Feature",
      "properties": {
        "norad_id": 34129,
        "name": "COSMOS 2251 DEB",
        "group": "cosmos-2251-debris",
        "lat": -15.692264635591885,
        "lon": -8.785016719564547,
        "alt_km": 650.4567167425521,
        "timestamp": "2025-12-04T09:47:37.913539+00:00",
        "meta_object_name": "COSMOS 2251 DEB",
        "meta_object_id": "1993-036LA",
        "meta_epoch": "2025-12-04T03:21:31.580640",
        "meta_mean_motion": 14.75503723,
        "meta_eccentricity": 0.0032677,
        "meta_inclination": 74.0353,
        "meta_ra_of_asc_node": 356.3522,
        "meta_arg_of_pericenter": 80.7658,
        "meta_mean_anomaly": 279.721,
        "meta_ephemeris_type": 0,
        "meta_classification_type": "U",
        "meta_norad_cat_id": 34129,
        "meta_element_set_no": 999,
        "meta_rev_at_epoch": 61171,
        "meta_bstar": 0.0026853,
        "meta_mean_motion_dot": 0.00018455,
        "meta_mean_motion_ddot": 0,
        "tle_line1": "1 34129U 93036LA  25338.13994885  .00018455  00000+0  26853-2 0  9996",
        "tle_line2": "2 34129  74.0353 356.3522 0032677  80.7658 279.7210 14.75503723611719"
      },
      "geometry": {
        "type": "Point",
        "coordinates": [
          -8.785016719564547,
          -15.692264635591885
        ]
      }
    },
    {
      "type": "Feature",
      "properties": {
        "norad_id": 34136,
        "name": "COSMOS 2251 DEB",
        "group": "cosmos-2251-debris",
        "lat": 6.125368624594544,
        "lon": 60.82558014206483,
        "alt_km": 691.8882468196434,
        "timestamp": "2025-12-04T09:47:37.913549+00:00",
        "meta_object_name": "COSMOS 2251 DEB",
        "meta_object_id": "1993-036LH",
        "meta_epoch": "2025-12-03T16:28:43.667328",
        "meta_mean_motion": 14.79958477,
        "meta_eccentricity": 0.00865942,
        "meta_inclination": 74.0219,
        "meta_ra_of_asc_node": 60.4853,
        "meta_arg_of_pericenter": 185.8072,
        "meta_mean_anomaly": 298.4779,
        "meta_ephemeris_type": 0,
        "meta_classification_type": "U",
        "meta_norad_cat_id": 34136,
        "meta_element_set_no": 999,
        "meta_rev_at_epoch": 89876,
        "meta_bstar": 0.0008796771,
        "meta_mean_motion_dot": 7.058e-05,
        "meta_mean_motion_ddot": 0,
        "tle_line1": "1 34136U 93036LH  25337.68661652  .00007058  00000+0  87968-3 0  9998",
        "tle_line2": "2 34136  74.0219  60.4853 0086594 185.8072 298.4779 14.79958477898766"
      },
      "geometry": {
        "type": "Point",
        "coordinates": [
          60.82558014206483,
          6.125368624594544
        ]
      }
    },
    {
      "type": "Feature",
      "properties": {
        "norad_id": 34139,
        "name": "COSMOS 2251 DEB",
        "group": "cosmos-2251-debris",
        "lat": -1.1479061646229896,
        "lon": -90.38850450260773,
        "alt_km": 670.7170718677899,
        "timestamp": "2025-12-04T09:47:37.913560+00:00",
        "meta_object_name": "COSMOS 2251 DEB",
        "meta_object_id": "1993-036LL",
        "meta_epoch": "2025-12-03T20:53:10.226400",
        "meta_mean_motion": 14.5884695,
        "meta_eccentricity": 0.00426405,
        "meta_inclination": 74.0313,
        "meta_ra_of_asc_node": 270.9645,
        "meta_arg_of_pericenter": 343.5071,
        "meta_mean_anomaly": 71.8719,
        "meta_ephemeris_type": 0,
        "meta_classification_type": "U",
        "meta_norad_cat_id": 34139,
        "meta_element_set_no": 999,
        "meta_rev_at_epoch": 88020,
        "meta_bstar": 0.0025933306,
        "meta_mean_motion_dot": 0.00012282,
        "meta_mean_motion_ddot": 0,
        "tle_line1": "1 34139U 93036LL  25337.87025725  .00012282  00000+0  25933-2 0  9995",
        "tle_line2": "2 34139  74.0313 270.9645 0042640 343.5071  71.8719 14.58846950880203"
      },
      "geometry": {
        "type": "Point",
        "coordinates": [
          -90.38850450260773,
          -1.1479061646229896
        ]
      }
    }
  ]
}